CTC1_L_00388001-01
1 29396U 26281EF  26037.47805556  .00000000  00000+0  00000-0 0  9995
2 29396  70.0000   0.0000 0000000   0.0000   0.0000 13.03091717    11
CTC1_L_00388001-02
1 29397U 26516PD  26037.47805556  .00000000  00000+0  00000-0 0  9997
2 29397  70.0000   0.0000 0000000   0.0000  90.0000 13.03091717    11
CTC1_L_00388001-03
1 29398U 26470YH  26037.47805556  .00000000  00000+0  00000-0 0  9997
2 29398  70.0000   0.0000 0000000   0.0000 180.0000 13.03091717    12
CTC1_L_00388001-04
1 29399U 26748FG  26037.47805556  .00000000  00000+0  00000-0 0  9996
2 29399  70.0000   0.0000 0000000   0.0000 270.0000 13.03091717    13
CTC1_L_00388002-01
1 29400U 25090RS  26037.47805556  .00000000  00000+0  00000-0 0  9998
2 29400  70.0000  12.0000 0000000   0.0000  12.0000 13.03091717    13
CTC1_L_00388002-02
1 29401U 23061ZF  26037.47805556  .00000000  00000+0  00000-0 0  9995
2 29401  70.0000  12.0000 0000000   0.0000 102.0000 13.03091717    14
CTC1_L_00388002-03
1 29402U 25391NR  26037.47805556  .00000000  00000+0  00000-0 0  9994
2 29402  70.0000  12.0000 0000000   0.0000 192.0000 13.03091717    14
CTC1_L_00388002-04
1 29403U 25198KX  26037.47805556  .00000000  00000+0  00000-0 0  9990
2 29403  70.0000  12.0000 0000000   0.0000 282.0000 13.03091717    15
CTC1_L_00388003-01
1 29404U 25211ER  26037.47805556  .00000000  00000+0  00000-0 0  9997
2 29404  70.0000  24.0000 0000000   0.0000  24.0000 13.03091717    13
CTC1_L_00388003-02
1 29405U 25296GH  26037.47805556  .00000000  00000+0  00000-0 0  9991
2 29405  70.0000  24.0000 0000000   0.0000 114.0000 13.03091717    14
CTC1_L_00388003-03
1 29406U 24961FC  26037.47805556  .00000000  00000+0  00000-0 0  9990
2 29406  70.0000  24.0000 0000000   0.0000 204.0000 13.03091717    15
CTC1_L_00388003-04
1 29407U 26602UM  26037.47805556  .00000000  00000+0  00000-0 0  9995
2 29407  70.0000  24.0000 0000000   0.0000 294.0000 13.03091717    15
CTC1_L_00388004-01
1 29408U 24972IL  26037.47805556  .00000000  00000+0  00000-0 0  9994
2 29408  70.0000  36.0000 0000000   0.0000  36.0000 13.03091717    13
CTC1_L_00388004-02
1 29409U 26904EE  26037.47805556  .00000000  00000+0  00000-0 0  9992
2 29409  70.0000  36.0000 0000000   0.0000 126.0000 13.03091717    14
CTC1_L_00388004-03
1 29410U 26766IU  26037.47805556  .00000000  00000+0  00000-0 0  9990
2 29410  70.0000  36.0000 0000000   0.0000 216.0000 13.03091717    16
CTC1_L_00388004-04
1 29411U 23721IK  26037.47805556  .00000000  00000+0  00000-0 0  9999
2 29411  70.0000  36.0000 0000000   0.0000 306.0000 13.03091717    17
CTC1_L_00388005-01
1 29412U 22750RY  26037.47805556  .00000000  00000+0  00000-0 0  9991
2 29412  70.0000  48.0000 0000000   0.0000  48.0000 13.03091717    14
CTC1_L_00388005-02
1 29413U 23896NY  26037.47805556  .00000000  00000+0  00000-0 0  9994
2 29413  70.0000  48.0000 0000000   0.0000 138.0000 13.03091717    15
CTC1_L_00388005-03
1 29414U 26688QW  26037.47805556  .00000000  00000+0  00000-0 0  9997
2 29414  70.0000  48.0000 0000000   0.0000 228.0000 13.03091717    16
CTC1_L_00388005-04
1 29415U 23404ZP  26037.47805556  .00000000  00000+0  00000-0 0  9991
2 29415  70.0000  48.0000 0000000   0.0000 318.0000 13.03091717    17
CTC1_L_00388006-01
1 29416U 26998YN  26037.47805556  .00000000  00000+0  00000-0 0  9993
2 29416  70.0000  60.0000 0000000   0.0000  60.0000 13.03091717    16
CTC1_L_00388006-02
1 29417U 24410QE  26037.47805556  .00000000  00000+0  00000-0 0  9991
2 29417  70.0000  60.0000 0000000   0.0000 150.0000 13.03091717    17
CTC1_L_00388006-03
1 29418U 24711AI  26037.47805556  .00000000  00000+0  00000-0 0  9996
2 29418  70.0000  60.0000 0000000   0.0000 240.0000 13.03091717    18
CTC1_L_00388006-04
1 29419U 25257HT  26037.47805556  .00000000  00000+0  00000-0 0  9993
2 29419  70.0000  60.0000 0000000   0.0000 330.0000 13.03091717    19
CTC1_L_00388007-01
1 29420U 24473MO  26037.47805556  .00000000  00000+0  00000-0 0  9994
2 29420  70.0000  72.0000 0000000   0.0000  72.0000 13.03091717    17
CTC1_L_00388007-02
1 29421U 23198CH  26037.47805556  .00000000  00000+0  00000-0 0  9998
2 29421  70.0000  72.0000 0000000   0.0000 162.0000 13.03091717    18
CTC1_L_00388007-03
1 29422U 25753B   26037.47805556  .00000000  00000+0  00000-0 0  9998
2 29422  70.0000  72.0000 0000000   0.0000 252.0000 13.03091717    19
CTC1_L_00388007-04
1 29423U 26122EK  26037.47805556  .00000000  00000+0  00000-0 0  9990
2 29423  70.0000  72.0000 0000000   0.0000 342.0000 13.03091717    10
CTC1_L_00388008-01
1 29424U 26972NN  26037.47805556  .00000000  00000+0  00000-0 0  9994
2 29424  70.0000  84.0000 0000000   0.0000  84.0000 13.03091717    17
CTC1_L_00388008-02
1 29425U 22083UO  26037.47805556  .00000000  00000+0  00000-0 0  9994
2 29425  70.0000  84.0000 0000000   0.0000 174.0000 13.03091717    18
CTC1_L_00388008-03
1 29426U 25524PG  26037.47805556  .00000000  00000+0  00000-0 0  9998
2 29426  70.0000  84.0000 0000000   0.0000 264.0000 13.03091717    19
CTC1_L_00388008-04
1 29427U 24302FN  26037.47805556  .00000000  00000+0  00000-0 0  9992
2 29427  70.0000  84.0000 0000000   0.0000 354.0000 13.03091717    10
CTC1_L_00388009-01
1 29428U 22437AZ  26037.47805556  .00000000  00000+0  00000-0 0  9990
2 29428  70.0000  96.0000 0000000   0.0000  96.0000 13.03091717    17
CTC1_L_00388009-02
1 29429U 23371FT  26037.47805556  .00000000  00000+0  00000-0 0  9999
2 29429  70.0000  96.0000 0000000   0.0000 186.0000 13.03091717    18
CTC1_L_00388009-03
1 29430U 25937MO  26037.47805556  .00000000  00000+0  00000-0 0  9991
2 29430  70.0000  96.0000 0000000   0.0000 276.0000 13.03091717    10
CTC1_L_00388009-04
1 29431U 23056IQ  26037.47805556  .00000000  00000+0  00000-0 0  9992
2 29431  70.0000  96.0000 0000000   0.0000   6.0000 13.03091717    12
CTC1_L_00388010-01
1 29432U 24199EY  26037.47805556  .00000000  00000+0  00000-0 0  9992
2 29432  70.0000 108.0000 0000000   0.0000 108.0000 13.03091717    10
CTC1_L_00388010-02
1 29433U 23468AW  26037.47805556  .00000000  00000+0  00000-0 0  9991
2 29433  70.0000 108.0000 0000000   0.0000 198.0000 13.03091717    10
CTC1_L_00388010-03
1 29434U 23009BW  26037.47805556  .00000000  00000+0  00000-0 0  9993
2 29434  70.0000 108.0000 0000000   0.0000 288.0000 13.03091717    11
CTC1_L_00388010-04
1 29435U 22796NZ  26037.47805556  .00000000  00000+0  00000-0 0  9996
2 29435  70.0000 108.0000 0000000   0.0000  18.0000 13.03091717    13
CTC1_L_00388011-01
1 29436U 26385XC  26037.47805556  .00000000  00000+0  00000-0 0  9995
2 29436  70.0000 120.0000 0000000   0.0000 120.0000 13.03091717    12
CTC1_L_00388011-02
1 29437U 25493SH  26037.47805556  .00000000  00000+0  00000-0 0  9995
2 29437  70.0000 120.0000 0000000   0.0000 210.0000 13.03091717    13
CTC1_L_00388011-03
1 29438U 22618DA  26037.47805556  .00000000  00000+0  00000-0 0  9992
2 29438  70.0000 120.0000 0000000   0.0000 300.0000 13.03091717    14
CTC1_L_00388011-04
1 29439U 26729BG  26037.47805556  .00000000  00000+0  00000-0 0  9990
2 29439  70.0000 120.0000 0000000   0.0000  30.0000 13.03091717    15
CTC1_L_00388012-01
1 29440U 23852OF  26037.47805556  .00000000  00000+0  00000-0 0  9996
2 29440  70.0000 132.0000 0000000   0.0000 132.0000 13.03091717    13
CTC1_L_00388012-02
1 29441U 26692WM  26037.47805556  .00000000  00000+0  00000-0 0  9992
2 29441  70.0000 132.0000 0000000   0.0000 222.0000 13.03091717    14
CTC1_L_00388012-03
1 29442U 22497NJ  26037.47805556  .00000000  00000+0  00000-0 0  9992
2 29442  70.0000 132.0000 0000000   0.0000 312.0000 13.03091717    15
CTC1_L_00388012-04
1 29443U 25433OF  26037.47805556  .00000000  00000+0  00000-0 0  9996
2 29443  70.0000 132.0000 0000000   0.0000  42.0000 13.03091717    16
CTC1_L_00388013-01
1 29444U 24702ZO  26037.47805556  .00000000  00000+0  00000-0 0  9995
2 29444  70.0000 144.0000 0000000   0.0000 144.0000 13.03091717    13
CTC1_L_00388013-02
1 29445U 23338TP  26037.47805556  .00000000  00000+0  00000-0 0  9990
2 29445  70.0000 144.0000 0000000   0.0000 234.0000 13.03091717    14
CTC1_L_00388013-03
1 29446U 26278ZJ  26037.47805556  .00000000  00000+0  00000-0 0  9997
2 29446  70.0000 144.0000 0000000   0.0000 324.0000 13.03091717    15
CTC1_L_00388013-04
1 29447U 22361OL  26037.47805556  .00000000  00000+0  00000-0 0  9997
2 29447  70.0000 144.0000 0000000   0.0000  54.0000 13.03091717    16
CTC1_L_00388014-01
1 29448U 23375OA  26037.47805556  .00000000  00000+0  00000-0 0  9994
2 29448  70.0000 156.0000 0000000   0.0000 156.0000 13.03091717    13
CTC1_L_00388014-02
1 29449U 25895FL  26037.47805556  .00000000  00000+0  00000-0 0  9994
2 29449  70.0000 156.0000 0000000   0.0000 246.0000 13.03091717    14
CTC1_L_00388014-03
1 29450U 23056PA  26037.47805556  .00000000  00000+0  00000-0 0  9993
2 29450  70.0000 156.0000 0000000   0.0000 336.0000 13.03091717    16
CTC1_L_00388014-04
1 29451U 26651DF  26037.47805556  .00000000  00000+0  00000-0 0  9998
2 29451  70.0000 156.0000 0000000   0.0000  66.0000 13.03091717    17
CTC1_L_00388015-01
1 29452U 25550RU  26037.47805556  .00000000  00000+0  00000-0 0  9996
2 29452  70.0000 168.0000 0000000   0.0000 168.0000 13.03091717    14
CTC1_L_00388015-02
1 29453U 23887ZD  26037.47805556  .00000000  00000+0  00000-0 0  9998
2 29453  70.0000 168.0000 0000000   0.0000 258.0000 13.03091717    15
CTC1_L_00388015-03
1 29454U 23378GH  26037.47805556  .00000000  00000+0  00000-0 0  9994
2 29454  70.0000 168.0000 0000000   0.0000 348.0000 13.03091717    16
CTC1_L_00388015-04
1 29455U 25903CO  26037.47805556  .00000000  00000+0  00000-0 0  9991
2 29455  70.0000 168.0000 0000000   0.0000  78.0000 13.03091717    17
CTC1_L_00388016-01
1 29456U 23061UX  26037.47805556  .00000000  00000+0  00000-0 0  9995
2 29456  70.0000 180.0000 0000000   0.0000 180.0000 13.03091717    16
CTC1_L_00388016-02
1 29457U 25718EP  26037.47805556  .00000000  00000+0  00000-0 0  9997
2 29457  70.0000 180.0000 0000000   0.0000 270.0000 13.03091717    17
